IRIDIUM 33 DEB          
1 34870U 97051MQ  26087.45993536  .00011208  00000+0  15172-2 0  9990
2 34870  86.3049 265.5555 0016555 178.4729 211.1933 14.78795731904721
IRIDIUM 33 DEB          
1 34896U 97051MY  26087.32789503  .00004828  00000+0  84560-3 0  9999
2 34896  86.3238 279.2819 0024402 212.5116 266.5254 14.67444458891678
IRIDIUM 33 DEB          
1 34926U 97051NF  26087.65536693  .00019333  00000+0  38784-2 0  9992
2 34926  86.1341 318.9492 0073191 298.7805 115.1940 14.59905042879997
IRIDIUM 33 DEB          
1 34985U 97051NR  26087.75257984  .00002150  00000+0  64128-3 0  9992
2 34985  86.3750  11.6352 0019049 232.2525 156.8917 14.42557469887032
IRIDIUM 33 DEB          
1 35051U 97051NX  26087.90093649  .00002011  00000+0  53412-3 0  9990
2 35051  86.3240 322.5926 0010345  92.2404 267.9984 14.48186490885328
IRIDIUM 33 DEB          
1 35052U 97051NY  26086.40426279  .00000508  00000+0  15920-3 0  9995
2 35052  86.3340 335.6274 0013619  97.5976 262.6769 14.38648021887800
IRIDIUM 33 DEB          
1 35080U 97051PF  26087.04036131  .00098428  00000+0  62190-2 0  9999
2 35080  86.2123   1.2820 0036503 143.0814 217.2946 15.08052716712625
IRIDIUM 33 DEB          
1 35297U 97051PM  26086.54920999  .00001884  00000+0  52628-3 0  9993
2 35297  86.3906  18.0013 0016298 148.0584 212.1610 14.45692430719401
IRIDIUM 33 DEB          
1 35299U 97051PP  26086.47802459  .00003624  00000+0  10819-2 0  9996
2 35299  86.2913 347.5684 0056960 114.5526  64.7598 14.41820076878393
IRIDIUM 33 DEB          
1 35480U 97051QA  26086.41450154  .00001927  00000+0  48798-3 0  9995
2 35480  86.3600 339.5317 0015474 110.1635 250.1236 14.50368436885486
IRIDIUM 33 DEB          
1 35484U 97051QE  26076.88565226  .00025460  00000+0  16373-2 0  9997
2 35484  86.3507 307.8846 0014840 135.1901 225.0537 15.08193596634451
IRIDIUM 33 DEB          
1 35488U 97051QJ  26088.18416499  .00013514  00000+0  15440-2 0  9995
2 35488  86.3205 251.6758 0025731  26.1038 334.1477 14.85717620898450
IRIDIUM 33 DEB          
1 35616U 97051QN  26088.01581267  .00013539  00000+0  15735-2 0  9990
2 35616  86.3504 297.1221 0009431 153.6668 206.5037 14.85229344891503
IRIDIUM 33 DEB          
1 35618U 97051QQ  26086.88534543  .00001476  00000+0  35220-3 0  9999
2 35618  86.3372 307.5216 0029528  28.3396 331.9409 14.52793612669207
IRIDIUM 33 DEB          
1 35620U 97051QS  26087.96422397  .00009239  00000+0  25918-2 0  9992
2 35620  86.3901 172.5720 0131255 266.0097  92.6090 14.40944349614948
IRIDIUM 33 DEB          
1 35622U 97051QU  26088.09512082  .00051881  00000+0  26884-2 0  9993
2 35622  86.1939 210.6368 0008384 225.1615 313.3658 15.15935845889658
